[{"OBJECT_NAME":"ONEWEB-0064","OBJECT_ID":"2020-020K","EPOCH":"2026-03-09T22:09:59.713056","MEAN_MOTION":13.11414825,"ECCENTRICITY":0.00020093,"INCLINATION":87.8857,"RA_OF_ASC_NODE":40.8048,"ARG_OF_PERICENTER":83.4094,"MEAN_ANOMALY":276.7262,"EPHEMERIS_TYPE":0,"CLASSIFICATION_TYPE":"U","NORAD_CAT_ID":45433,"ELEMENT_SET_NO":999,"REV_AT_EPOCH":28967,"BSTAR":0.00054576266,"MEAN_MOTION_DOT":2.06e-6,"MEAN_MOTION_DDOT":0},{"OBJECT_NAME":"THORAD AGENA D DEB","OBJECT_ID":"1970-025TK","EPOCH":"2026-03-08T20:30:06.788736","MEAN_MOTION":13.11023788,"ECCENTRICITY":0.01279366,"INCLINATION":100.0768,"RA_OF_ASC_NODE":86.1332,"ARG_OF_PERICENTER":178.2703,"MEAN_ANOMALY":181.8875,"EPHEMERIS_TYPE":0,"CLASSIFICATION_TYPE":"U","NORAD_CAT_ID":42553,"ELEMENT_SET_NO":999,"REV_AT_EPOCH":54241,"BSTAR":0.00016781361,"MEAN_MOTION_DOT":2.0e-7,"MEAN_MOTION_DDOT":0}]
